[
    {
        "Altitude(m)": 555601.0342650986,
        "Argument of Periapsis(deg)": 0.033114955553567506,
        "Eccentricity": 0.0,
        "Inclination(deg)": 53.0,
        "Latitude(deg)": 33.259625467949554,
        "Longitude(deg)": -119.54660459746471,
        "Mean Anomaly(deg)": 43.185364337887826,
        "RAAN(deg)": 314.9507168426401,
        "Satellite Name": "Starlink Shell 1 1407",
        "Satellite Number": 1407,
        "Semi-Major Axis(m)": 6931778.249405717,
        "Time(s)": 950
    },
    {
        "Altitude(m)": 555680.914446716,
        "Argument of Periapsis(deg)": 0.03346353403307874,
        "Eccentricity": 0.0,
        "Inclination(deg)": 53.0,
        "Latitude(deg)": 33.69613301605764,
        "Longitude(deg)": -119.04751219245844,
        "Mean Anomaly(deg)": 43.81219554144468,
        "RAAN(deg)": 314.9501980725626,
        "Satellite Name": "Starlink Shell 1 1407",
        "Satellite Number": 1407,
        "Semi-Major Axis(m)": 6931778.249405717,
        "Time(s)": 960
    },
    {
        "Altitude(m)": 555761.4017429589,
        "Argument of Periapsis(deg)": 0.03381211251258998,
        "Eccentricity": 0.0,
        "Inclination(deg)": 53.0,
        "Latitude(deg)": 34.130222274331636,
        "Longitude(deg)": -118.5429479166189,
        "Mean Anomaly(deg)": 44.43902674500132,
        "RAAN(deg)": 314.94967930248515,
        "Satellite Name": "Starlink Shell 1 1407",
        "Satellite Number": 1407,
        "Semi-Major Axis(m)": 6931778.249405717,
        "Time(s)": 970
    },
    {
        "Altitude(m)": 555842.4405571078,
        "Argument of Periapsis(deg)": 0.034160690992101214,
        "Eccentricity": 0.0,
        "Inclination(deg)": 53.0,
        "Latitude(deg)": 34.561829543452575,
        "Longitude(deg)": -118.03279642837047,
        "Mean Anomaly(deg)": -314.934142051442,
        "RAAN(deg)": 314.94916053240763,
        "Satellite Name": "Starlink Shell 1 1407",
        "Satellite Number": 1407,
        "Semi-Major Axis(m)": 6931778.249405717,
        "Time(s)": 980
    },
    {
        "Altitude(m)": 555923.975219065,
        "Argument of Periapsis(deg)": 0.034509269471612446,
        "Eccentricity": 0.0,
        "Inclination(deg)": 53.0,
        "Latitude(deg)": 34.99088965202133,
        "Longitude(deg)": -117.51694095290038,
        "Mean Anomaly(deg)": -314.3073108478853,
        "RAAN(deg)": 314.9486417623302,
        "Satellite Name": "Starlink Shell 1 1407",
        "Satellite Number": 1407,
        "Semi-Major Axis(m)": 6931778.249405717,
        "Time(s)": 990
    }
]